OBJECT_NAME,OBJECT_ID,EPOCH,MEAN_MOTION,ECCENTRICITY,INCLINATION,RA_OF_ASC_NODE,ARG_OF_PERICENTER,MEAN_ANOMALY,EPHEMERIS_TYPE,CLASSIFICATION_TYPE,NORAD_CAT_ID,ELEMENT_SET_NO,REV_AT_EPOCH,BSTAR,MEAN_MOTION_DOT,MEAN_MOTION_DDOT
PROBA-1,2001-049B,2026-07-02T19:13:46.020576,15.07562476,.0056625,97.9596,192.8794,70.7372,289.9968,0,U,26958,999,34597,.78967E-4,.1173E-4,0
CUTE-1 (CO-55),2003-031E,2026-07-01T23:59:56.675328,14.24344824,.00104087,98.6736,191.3725,137.1021,223.0971,0,U,27844,999,19378,.15002425E-3,.303E-5,0
CUBESAT XI-IV (CO-57),2003-031J,2026-07-02T18:27:18.924192,14.23629228,.000999,98.6769,191.8320,152.4134,207.7577,0,U,27848,999,19359,.14166E-3,.279E-5,0
APRIZESAT 4,2009-041D,2026-07-02T03:49:28.984800,14.83899214,.00418866,98.1409,258.7781,273.0980,86.5440,0,U,35684,999,91358,.97714435E-4,.764E-5,0
APRIZESAT 3,2009-041F,2026-07-02T16:20:00.184416,14.96282760,.0061916,98.2079,337.6483,16.9430,343.3839,0,U,35686,999,91869,.1082E-3,.1201E-4,0
PROBA-2,2009-059B,2026-07-02T18:48:34.006752,14.54869294,.0012235,98.2454,6.9205,228.9186,131.0955,0,U,36037,999,88379,.62056E-4,.221E-5,0
APRIZESAT 5,2011-044E,2026-07-02T13:05:42.393120,14.81108748,.0051161,98.2450,117.0216,314.4674,45.2359,0,U,37792,999,80106,.15796E-3,.1194E-4,0
APRIZESAT 6,2011-044F,2026-07-02T17:19:23.113056,14.76941007,.004399,98.2350,94.5379,37.6901,344.9611,0,U,37793,999,79944,.14531E-3,.982E-5,0
PROBA-V,2013-021A,2026-07-02T15:38:58.536960,14.23600983,.0005436,98.3594,161.4958,88.2056,271.9746,0,U,39159,999,68331,.75585E-4,.131E-5,0
APRIZESAT 7,2013-066A,2026-07-02T18:49:58.474848,14.91597426,.0036371,97.7716,136.7811,157.2885,202.9952,0,U,39416,999,68355,.11825E-3,.1144E-4,0
APRIZESAT 8,2013-066K,2026-07-02T16:17:19.175424,14.87680105,.00446,97.8225,130.9311,233.8710,125.8374,0,U,39425,999,68197,.11643E-3,.1022E-4,0
BUGSAT-1 (TITA),2014-033E,2026-07-02T17:58:14.193696,15.15764835,.002889,98.0432,277.2098,126.4020,233.9881,0,U,40014,999,65819,.43703E-3,.8354E-4,0
SAUDISAT 4,2014-033G,2026-07-02T16:09:53.296128,14.79564269,.0045307,97.7603,329.2740,24.7459,335.5912,0,U,40016,999,64836,.9767E-4,.691E-5,0
APRIZESAT 9,2014-033J,2026-07-02T14:45:34.126848,14.74237994,.0066859,97.9081,316.4379,149.7034,210.8067,0,U,40018,999,64583,.14128E-3,.915E-5,0
APRIZESAT 10,2014-033K,2026-07-02T15:17:06.433728,14.70898784,.0077827,97.9670,310.2533,223.7213,135.7814,0,U,40019,999,64452,.11681E-3,.696E-5,0
TECHDEMOSAT-1 (TDS-1),2014-037H,2026-07-02T16:42:21.278304,15.13527171,.0005633,98.3815,177.4486,199.5033,160.5981,0,U,40076,999,65057,.49136E-3,.8733E-4,0
TECHNOSAT,2017-042E,2026-07-02T16:10:51.769920,15.05047398,.0018579,97.4294,340.7445,44.9209,315.3517,0,U,42829,999,48903,.21541E-3,.3012E-4,0
FLYING LAPTOP,2017-042G,2026-07-02T18:47:23.844768,15.01250097,.0020006,97.4760,338.7224,71.9828,288.3575,0,U,42831,999,48879,.50145E-3,.6414E-4,0
HAWK-A,2018-099H,2026-07-02T13:46:10.305696,15.24825216,.0033542,97.3901,235.6097,229.1034,130.7297,0,U,43765,999,41544,.29894E-3,.7466E-4,0
HAWK-B,2018-099AN,2026-07-02T14:43:40.370016,15.22992160,.0030413,97.3948,235.0320,247.8388,111.9620,0,U,43794,999,41538,.29393E-3,.6927E-4,0
HAWK-C,2018-099AT,2026-07-02T13:56:19.449888,15.28320860,.0039169,97.3878,236.6053,229.0602,130.7245,0,U,43799,999,41626,.30026E-3,.8396E-4,0
SALSAT,2020-068K,2026-07-02T06:06:00.402048,15.30013367,.0008038,97.8847,187.2381,243.7769,116.2645,0,U,46495,999,31766,.29987E-3,.8637E-4,0
HAWK-2C,2021-006CT,2026-07-02T12:56:42.201312,15.34851524,.0008195,97.2264,227.5437,137.0400,223.1485,0,U,47502,999,30185,.22364E-3,.7487E-4,0
HAWK-2A,2021-006CW,2026-07-02T00:29:02.103936,15.34859675,.00076073,97.2308,227.7213,141.4283,218.7506,0,U,47505,999,30177,.23444889E-3,.7854E-4,0
HAWK-2B,2021-006CZ,2026-07-02T15:59:58.106400,15.34981442,.0008263,97.2174,226.6622,138.1480,222.0397,0,U,47508,999,30187,.24865E-3,.8369E-4,0
HAWK-3B,2021-059BE,2026-07-02T11:48:04.049856,15.70861042,.0003426,97.6639,21.6610,250.4226,109.6666,0,U,48931,999,28025,.3698E-3,.4604E-3,0
HAWK-3C,2021-059BX,2026-07-02T02:37:13.001664,15.70822629,.00035577,97.6758,26.9528,255.0517,105.0351,0,U,48948,999,28019,.41275044E-3,.51354E-3,0
HAWK-3A,2021-059CG,2026-07-02T11:47:26.185056,15.70854979,.0003605,97.6707,24.5647,255.1369,104.9494,0,U,48957,999,28025,.38069E-3,.47397E-3,0
HAWK-5C,2022-057Y,2026-07-02T17:09:43.643808,15.51943220,.0003912,97.6614,344.3900,31.2505,328.8979,0,U,52754,999,22875,.32022E-3,.19146E-3,0
HAWK-5B,2022-057AA,2026-07-02T17:09:28.256832,15.51945572,.0004517,97.6626,342.7407,21.3656,338.7783,0,U,52756,999,22875,.32151E-3,.19227E-3,0
